[{"OBJECT_NAME":"STARLINK-31609","OBJECT_ID":"2024-050R","EPOCH":"2026-03-09T14:33:04.402944","MEAN_MOTION":15.30187672,"ECCENTRICITY":0.0001047,"INCLINATION":53.1609,"RA_OF_ASC_NODE":181.5288,"ARG_OF_PERICENTER":78.8623,"MEAN_ANOMALY":281.2496,"EPHEMERIS_TYPE":0,"CLASSIFICATION_TYPE":"U","NORAD_CAT_ID":59269,"ELEMENT_SET_NO":999,"REV_AT_EPOCH":11053,"BSTAR":4.0853e-5,"MEAN_MOTION_DOT":8.51e-6,"MEAN_MOTION_DDOT":0},{"OBJECT_NAME":"USA 40 R\/B DEB","OBJECT_ID":"1989-061BX","EPOCH":"2026-03-08T03:59:26.617920","MEAN_MOTION":9.34911451,"ECCENTRICITY":0.28222994,"INCLINATION":57.0206,"RA_OF_ASC_NODE":2.9696,"ARG_OF_PERICENTER":173.1457,"MEAN_ANOMALY":191.8496,"EPHEMERIS_TYPE":0,"CLASSIFICATION_TYPE":"U","NORAD_CAT_ID":44524,"ELEMENT_SET_NO":999,"REV_AT_EPOCH":19674,"BSTAR":0.0049845599,"MEAN_MOTION_DOT":0.00012255,"MEAN_MOTION_DDOT":0}]
